{"type": "FeatureCollection", "features": [{"type": "Feature", "properties": {"norad_id": 26766, "name": "INTELSAT 10 (IS-10)", "group": "intelsat", "lat": 0.43533239162958737, "lon": -121.87620212125597, "alt_km": 36105.04315456773, "timestamp": "2025-12-25T03:55:55.974560+00:00", "meta": {"OBJECT_NAME": "INTELSAT 10 (IS-10)", "OBJECT_ID": "2001-019A", "EPOCH": "2025-12-24T19:52:43.092192", "MEAN_MOTION": 0.9907234, "ECCENTRICITY": 0.0007938, "INCLINATION": 8.6564, "RA_OF_ASC_NODE": 61.0345, "ARG_OF_PERICENTER": 229.6069, "MEAN_ANOMALY": 187.8364, "EPHEMERIS_TYPE": 0, "CLASSIFICATION_TYPE": "U", "NORAD_CAT_ID": 26766, "ELEMENT_SET_NO": 999, "REV_AT_EPOCH": 4385, "BSTAR": 0, "MEAN_MOTION_DOT": 1.5e-07, "MEAN_MOTION_DDOT": 0}, "tle": {"line1": "1 26766U 01019A   25358.82827653  .00000015  00000+0  00000+0 0  9996", "line2": "2 26766   8.6564  61.0345 0007938 229.6069 187.8364  0.99072340 43859"}}, "geometry": {"type": "Point", "coordinates": [-121.87620212125597, 0.43533239162958737]}}, {"type": "Feature", "properties": {"norad_id": 26900, "name": "INTELSAT 902 (IS-902)", "group": "intelsat", "lat": 2.7486264538292207, "lon": 102.57213718219158, "alt_km": 35805.06714191936, "timestamp": "2025-12-25T03:55:55.974586+00:00", "meta": {"OBJECT_NAME": "INTELSAT 902 (IS-902)", "OBJECT_ID": "2001-039A", "EPOCH": "2025-12-15T13:09:02.081664", "MEAN_MOTION": 1.0027087, "ECCENTRICITY": 0.00045028, "INCLINATION": 5.6536, "RA_OF_ASC_NODE": 74.0372, "ARG_OF_PERICENTER": 189.6359, "MEAN_ANOMALY": 327.9329, "EPHEMERIS_TYPE": 0, "CLASSIFICATION_TYPE": "U", "NORAD_CAT_ID": 26900, "ELEMENT_SET_NO": 999, "REV_AT_EPOCH": 8885, "BSTAR": 0, "MEAN_MOTION_DOT": -2.65e-06, "MEAN_MOTION_DDOT": 0}, "tle": {"line1": "1 26900U 01039A   25349.54794076 -.00000265  00000+0  00000+0 0  9997", "line2": "2 26900   5.6536  74.0372 0004502 189.6359 327.9329  1.00270870 88858"}}, "geometry": {"type": "Point", "coordinates": [102.57213718219158, 2.7486264538292207]}}, {"type": "Feature", "properties": {"norad_id": 27380, "name": "INTELSAT 904 (IS-904)", "group": "intelsat", "lat": 4.992051466458862, "lon": 121.24727204111863, "alt_km": 35792.75748390805, "timestamp": "2025-12-25T03:55:55.974603+00:00", "meta": {"OBJECT_NAME": "INTELSAT 904 (IS-904)", "OBJECT_ID": "2002-007A", "EPOCH": "2025-12-23T23:15:16.271712", "MEAN_MOTION": 1.00273356, "ECCENTRICITY": 0.00018804, "INCLINATION": 6.4809, "RA_OF_ASC_NODE": 71.3034, "ARG_OF_PERICENTER": 245.293, "MEAN_ANOMALY": 93.4817, "EPHEMERIS_TYPE": 0, "CLASSIFICATION_TYPE": "U", "NORAD_CAT_ID": 27380, "ELEMENT_SET_NO": 999, "REV_AT_EPOCH": 5000, "BSTAR": 0, "MEAN_MOTION_DOT": -2.07e-06, "MEAN_MOTION_DDOT": 0}, "tle": {"line1": "1 27380U 02007A   25357.96893833 -.00000207  00000+0  00000+0 0  9998", "line2": "2 27380   6.4809  71.3034 0001880 245.2930  93.4817  1.00273356 50003"}}, "geometry": {"type": "Point", "coordinates": [121.24727204111863, 4.992051466458862]}}, {"type": "Feature", "properties": {"norad_id": 27426, "name": "DIRECTV 5 (TEMPO 1)", "group": "intelsat", "lat": -2.5135357358682002, "lon": 42.900853018517076, "alt_km": 35793.8408165844, "timestamp": "2025-12-25T03:55:55.974617+00:00", "meta": {"OBJECT_NAME": "DIRECTV 5 (TEMPO 1)", "OBJECT_ID": "2002-023A", "EPOCH": "2025-12-24T05:01:47.604864", "MEAN_MOTION": 1.00271646, "ECCENTRICITY": 0.00032791, "INCLINATION": 4.4296, "RA_OF_ASC_NODE": 77.5183, "ARG_OF_PERICENTER": 203.0994, "MEAN_ANOMALY": 137.6999, "EPHEMERIS_TYPE": 0, "CLASSIFICATION_TYPE": "U", "NORAD_CAT_ID": 27426, "ELEMENT_SET_NO": 999, "REV_AT_EPOCH": 8636, "BSTAR": 0, "MEAN_MOTION_DOT": -3.8e-07, "MEAN_MOTION_DDOT": 0}, "tle": {"line1": "1 27426U 02023A   25358.20957876 -.00000038  00000+0  00000+0 0  9995", "line2": "2 27426   4.4296  77.5183 0003279 203.0994 137.6999  1.00271646 86361"}}, "geometry": {"type": "Point", "coordinates": [42.900853018517076, -2.5135357358682002]}}, {"type": "Feature", "properties": {"norad_id": 27438, "name": "INTELSAT 905 (IS-905)", "group": "intelsat", "lat": -5.245830450877227, "lon": 15.916829147660811, "alt_km": 35787.640622258106, "timestamp": "2025-12-25T03:55:55.974630+00:00", "meta": {"OBJECT_NAME": "INTELSAT 905 (IS-905)", "OBJECT_ID": "2002-027A", "EPOCH": "2025-12-23T05:41:27.377952", "MEAN_MOTION": 1.00273243, "ECCENTRICITY": 0.00027491, "INCLINATION": 6.3102, "RA_OF_ASC_NODE": 71.9349, "ARG_OF_PERICENTER": 206.5226, "MEAN_ANOMALY": 121.7385, "EPHEMERIS_TYPE": 0, "CLASSIFICATION_TYPE": "U", "NORAD_CAT_ID": 27438, "ELEMENT_SET_NO": 999, "REV_AT_EPOCH": 4959, "BSTAR": 0, "MEAN_MOTION_DOT": 1.12e-06, "MEAN_MOTION_DDOT": 0}, "tle": {"line1": "1 27438U 02027A   25357.23712243  .00000112  00000+0  00000+0 0  9993", "line2": "2 27438   6.3102  71.9349 0002749 206.5226 121.7385  1.00273243 49592"}}, "geometry": {"type": "Point", "coordinates": [15.916829147660811, -5.245830450877227]}}, {"type": "Feature", "properties": {"norad_id": 27445, "name": "GALAXY 3C (G-3C)", "group": "intelsat", "lat": -1.2381342478422903, "lon": 58.071055202058474, "alt_km": 35787.839241667076, "timestamp": "2025-12-25T03:55:55.974643+00:00", "meta": {"OBJECT_NAME": "GALAXY 3C (G-3C)", "OBJECT_ID": "2002-030A", "EPOCH": "2025-12-24T12:38:58.652736", "MEAN_MOTION": 1.00271316, "ECCENTRICITY": 0.0001098, "INCLINATION": 3.2915, "RA_OF_ASC_NODE": 80.3801, "ARG_OF_PERICENTER": 85.9373, "MEAN_ANOMALY": 21.8718, "EPHEMERIS_TYPE": 0, "CLASSIFICATION_TYPE": "U", "NORAD_CAT_ID": 27445, "ELEMENT_SET_NO": 999, "REV_AT_EPOCH": 4474, "BSTAR": 0, "MEAN_MOTION_DOT": -1.33e-06, "MEAN_MOTION_DDOT": 0}, "tle": {"line1": "1 27445U 02030A   25358.52706774 -.00000133  00000+0  00000+0 0  9994", "line2": "2 27445   3.2915  80.3801 0001098  85.9373  21.8718  1.00271316 44744"}}, "geometry": {"type": "Point", "coordinates": [58.071055202058474, -1.2381342478422903]}}, {"type": "Feature", "properties": {"norad_id": 27513, "name": "INTELSAT 906 (IS-906)", "group": "intelsat", "lat": 3.3014693198810887, "lon": -142.89667538148498, "alt_km": 35772.587660402925, "timestamp": "2025-12-25T03:55:55.974659+00:00", "meta": {"OBJECT_NAME": "INTELSAT 906 (IS-906)", "OBJECT_ID": "2002-041A", "EPOCH": "2025-12-24T18:32:24.807840", "MEAN_MOTION": 1.00270703, "ECCENTRICITY": 0.0006184, "INCLINATION": 5.3606, "RA_OF_ASC_NODE": 75.0884, "ARG_OF_PERICENTER": 201.2549, "MEAN_ANOMALY": 159.4359, "EPHEMERIS_TYPE": 0, "CLASSIFICATION_TYPE": "U", "NORAD_CAT_ID": 27513, "ELEMENT_SET_NO": 999, "REV_AT_EPOCH": 8528, "BSTAR": 0, "MEAN_MOTION_DOT": 3.2e-07, "MEAN_MOTION_DDOT": 0}, "tle": {"line1": "1 27513U 02041A   25358.77250935  .00000032  00000+0  00000+0 0  9999", "line2": "2 27513   5.3606  75.0884 0006184 201.2549 159.4359  1.00270703 85283"}}, "geometry": {"type": "Point", "coordinates": [-142.89667538148498, 3.3014693198810887]}}, {"type": "Feature", "properties": {"norad_id": 27954, "name": "GALAXY 13 (HORIZONS-1)", "group": "intelsat", "lat": -0.9663790382898922, "lon": 2.9028435662426584, "alt_km": 35786.507394593995, "timestamp": "2025-12-25T03:55:55.974685+00:00", "meta": {"OBJECT_NAME": "GALAXY 13 (HORIZONS-1)", "OBJECT_ID": "2003-044A", "EPOCH": "2025-12-24T17:31:23.154240", "MEAN_MOTION": 1.00271701, "ECCENTRICITY": 0.0002323, "INCLINATION": 0.9678, "RA_OF_ASC_NODE": 86.3132, "ARG_OF_PERICENTER": 184.6216, "MEAN_ANOMALY": 295.3815, "EPHEMERIS_TYPE": 0, "CLASSIFICATION_TYPE": "U", "NORAD_CAT_ID": 27954, "ELEMENT_SET_NO": 999, "REV_AT_EPOCH": 4482, "BSTAR": 0, "MEAN_MOTION_DOT": 1.53e-06, "MEAN_MOTION_DDOT": 0}, "tle": {"line1": "1 27954U 03044A   25358.73012910  .00000153  00000+0  00000+0 0  9991", "line2": "2 27954   0.9678  86.3132 0002323 184.6216 295.3815  1.00271701 44820"}}, "geometry": {"type": "Point", "coordinates": [2.9028435662426584, -0.9663790382898922]}}, {"type": "Feature", "properties": {"norad_id": 28358, "name": "INTELSAT 10-02", "group": "intelsat", "lat": 0.03053644257194582, "lon": 151.938304501434, "alt_km": 35790.199424810795, "timestamp": "2025-12-25T03:55:55.974700+00:00", "meta": {"OBJECT_NAME": "INTELSAT 10-02", "OBJECT_ID": "2004-022A", "EPOCH": "2025-12-24T13:05:33.607968", "MEAN_MOTION": 1.00270014, "ECCENTRICITY": 0.0001084, "INCLINATION": 0.0162, "RA_OF_ASC_NODE": 45.3926, "ARG_OF_PERICENTER": 249.4059, "MEAN_ANOMALY": 353.955, "EPHEMERIS_TYPE": 0, "CLASSIFICATION_TYPE": "U", "NORAD_CAT_ID": 28358, "ELEMENT_SET_NO": 999, "REV_AT_EPOCH": 7880, "BSTAR": 0, "MEAN_MOTION_DOT": 1e-07, "MEAN_MOTION_DDOT": 0}, "tle": {"line1": "1 28358U 04022A   25358.54552787  .00000010  00000+0  00000+0 0  9999", "line2": "2 28358   0.0162  45.3926 0001084 249.4059 353.9550  1.00270014 78800"}}, "geometry": {"type": "Point", "coordinates": [151.938304501434, 0.03053644257194582]}}, {"type": "Feature", "properties": {"norad_id": 28626, "name": "XM-3 (RHYTHM)", "group": "intelsat", "lat": 0.15974228193725704, "lon": -151.87984518872338, "alt_km": 36168.4406465765, "timestamp": "2025-12-25T03:55:55.974713+00:00", "meta": {"OBJECT_NAME": "XM-3 (RHYTHM)", "OBJECT_ID": "2005-008A", "EPOCH": "2025-12-24T18:30:25.000416", "MEAN_MOTION": 0.98950093, "ECCENTRICITY": 0.000216, "INCLINATION": 0.2038, "RA_OF_ASC_NODE": 82.2019, "ARG_OF_PERICENTER": 274.1318, "MEAN_ANOMALY": 71.9082, "EPHEMERIS_TYPE": 0, "CLASSIFICATION_TYPE": "U", "NORAD_CAT_ID": 28626, "ELEMENT_SET_NO": 999, "REV_AT_EPOCH": 4086, "BSTAR": 0, "MEAN_MOTION_DOT": 9.7e-07, "MEAN_MOTION_DDOT": 0}, "tle": {"line1": "1 28626U 05008A   25358.77112269  .00000097  00000+0  00000+0 0  9999", "line2": "2 28626   0.2038  82.2019 0002160 274.1318  71.9082  0.98950093 40864"}}, "geometry": {"type": "Point", "coordinates": [-151.87984518872338, 0.15974228193725704]}}]}